,School_Name,Address_Postcode,X,Y
4,Warrandyte Primary School,3113,145.21398,-37.742675
11,Cheltenham Primary School,3192,145.054635,-37.968608
13,Newport Lakes Primary School,3015,144.878345,-37.838424
23,Doncaster Primary School,3108,145.129673,-37.786804
25,Eltham Primary School,3095,145.1478042,-37.72498353
29,Flemington Primary School,3031,144.933923,-37.780674
30,Footscray Primary School,3011,144.892669,-37.798383
32,Sandringham Primary School,3191,145.02342,-37.951358
35,Hawthorn West Primary School,3122,145.018377,-37.820112
36,Heidelberg Primary School,3084,145.067799,-37.754705
51,Fitzroy Primary School,3065,144.981511,-37.799603
54,Burwood East Primary School,3151,145.151807,-37.859734
57,Essendon Primary School,3040,144.921042,-37.753095
58,Coburg Primary School,3058,144.968211,-37.741303
70,South Yarra Primary School,3141,144.985619,-37.841353
75,Thomastown Primary School,3074,145.011495,-37.682271
80,Werribee Primary School,3030,144.658736,-37.906865
92,Clayton North Primary School,3168,145.122666,-37.911944
105,Preston South Primary School,3072,145.007447,-37.747867
108,Mordialloc Beach Primary School,3195,145.088809,-38.005582
119,Lilydale Primary School,3140,145.3540681,-37.75367357
125,Camberwell Primary School,3124,145.058048,-37.832684
126,Greenvale Primary School,3059,144.886181,-37.639828
135,Westmeadows Primary School,3049,144.895697,-37.675649
137,Diamond Creek Primary School,3089,145.1516539,-37.67184929
140,Vermont Primary School,3133,145.194296,-37.837359
142,Balwyn Primary School,3103,145.081378,-37.813938
143,Scoresby Primary School,3179,145.227501,-37.89395
145,Wandin Yallock Primary School,3139,145.43595,-37.790251
148,Mickleham Primary School,3064,144.876546,-37.563495
153,Kew Primary School,3101,145.033386,-37.803639
163,Moorabbin Primary School,3189,145.039587,-37.94202
178,Glen Iris Primary School,3146,145.065894,-37.860483
185,Williamstown Primary School,3016,144.900409,-37.863798
196,Carlton North Primary School,3054,144.973028,-37.791064
198,Woori Yallock Primary School,3139,145.5326881,-37.77737209
207,Lower Plenty Primary School,3093,145.115498,-37.726172
214,Clifton Hill Primary School,3068,144.989245,-37.792308
225,Northcote Primary School,3070,144.99688,-37.771758
226,North Melbourne Primary School,3051,144.950637,-37.798733
227,Dandenong Primary School,3175,145.219821,-37.987917
229,Williamstown North Primary School,3016,144.891757,-37.855902
236,Cairnlea Park Primary School,3023,144.787998,-37.758855
243,Frankston Primary School,3199,145.1240309,-38.14755735
246,St Kilda Primary School,3182,144.989019,-37.870223
251,Fitzroy North Primary School,3068,144.984149,-37.78502
253,Preston Primary School,3072,145.01031,-37.730548
255,Glenferrie Primary School,3122,145.033974,-37.824048
258,Brighton Primary School,3186,145.001077,-37.912211
269,Keilor Primary School,3036,144.835704,-37.716896
277,Oakleigh Primary School,3166,145.088615,-37.894474
279,Malvern Central School,3144,145.034401,-37.856009
289,Arthurs Creek Primary School,3099,145.2025016,-37.57900478
317,Lysterfield Primary School,3156,145.276229,-37.911598
321,Abbotsford Primary School,3067,144.998814,-37.808979
323,Windsor Primary School,3181,144.995689,-37.857298
328,Footscray City Primary School,3011,144.900253,-37.8064
330,Plenty Parklands Primary School,3082,145.0769441,-37.6697252
353,Brighton Beach Primary School,3186,144.996107,-37.922105
355,Yarrambat Primary School,3091,145.133097,-37.641245
359,Greensborough Primary School,3088,145.100496,-37.703569
369,Kangaroo Ground Primary School,3097,145.214656,-37.691737
377,Bayswater Primary School,3153,145.259358,-37.843305
379,Mulgrave Primary School,3170,145.197367,-37.932946
402,The Basin Primary School,3154,145.308425,-37.84951
405,Kensington Primary School,3031,144.927615,-37.79267
410,Ivanhoe Primary School,3079,145.04298,-37.766573
412,Menzies Creek Primary School,3159,145.394271,-37.917349
413,St Kilda Park Primary School,3182,144.977794,-37.858117
420,Hoddles Creek Primary School,3139,145.5977536,-37.83173912
424,Malvern Primary School,3145,145.038458,-37.871592
425,Launching Place Primary School,3139,145.5707669,-37.78250174
426,Carlton Gardens Primary School,3053,144.969512,-37.802047
427,Ascot Vale Primary School,3032,144.926119,-37.774322
431,Armadale Primary School,3143,145.017773,-37.852186
440,Fairfield Primary School,3078,145.020401,-37.777993
445,Brunswick South Primary School,3057,144.972536,-37.778704
448,Surrey Hills Primary School,3127,145.100903,-37.825534
454,Seville Primary School,3139,145.4644066,-37.77389139
455,Yarraville West Primary School,3013,144.885386,-37.814751
456,Moreland Primary School,3058,144.966478,-37.755046
459,Elsternwick Primary School,3186,144.997293,-37.891416
461,Carnegie Primary School,3163,145.054505,-37.890739
463,Croydon Primary School,3136,145.281321,-37.793171
464,Moonee Ponds West Primary School,3039,144.909334,-37.768947
465,Mitcham Primary School,3132,145.192719,-37.808986
468,Blackburn Primary School,3130,145.156696,-37.816566
471,Auburn Primary School,3123,145.050484,-37.820278
472,Mentone Primary School,3194,145.067971,-37.982948
473,Princes Hill Primary School,3054,144.9681013,-37.78039994
475,Research Primary School,3095,145.1835697,-37.70291933
479,St Albans Primary School,3021,144.795769,-37.738748
482,Toorak Primary School,3142,145.009909,-37.845076
493,Pascoe Vale Primary School,3044,144.937255,-37.731225
497,Merri Creek Primary School,3068,144.987386,-37.776966
498,Sunshine Primary School,3020,144.831101,-37.790881
500,Wales Street Primary School,3071,145.008833,-37.76151
502,Spensley Street Primary School,3068,145.003879,-37.786794
503,Kew East Primary School,3102,145.049151,-37.796473
506,Brunswick East Primary School,3057,144.980001,-37.765271
512,Wonga Park Primary School,3115,145.273999,-37.730641
524,Clarinda Primary School,3169,145.102924,-37.926995
525,Chelsea Heights Primary School,3196,145.138057,-38.045019
527,Tecoma Primary School,3160,145.3449218,-37.90695837
530,Carrum Primary School,3197,145.126705,-38.07812
534,Mount Waverley Primary School,3149,145.124111,-37.881266
536,Murrumbeena Primary School,3163,145.070409,-37.88617
539,Warranwood Primary School,3134,145.246981,-37.774347
548,Belgrave South Primary School,3160,145.3579203,-37.93119813
549,Yarra Me School,3072,145.0181746,-37.73790557
550,Sydenham - Hillside Primary School,3037,144.762327,-37.702046
551,Canterbury Primary School,3126,145.083144,-37.830963
554,Brunswick North Primary School,3055,144.95043,-37.759837
555,Fawkner Primary School,3060,144.974756,-37.715235
556,Alphington Primary School,3078,145.032006,-37.783523
557,The Austin School,3084,145.058287,-37.755435
560,Norris Bank Primary School,3083,145.0426341,-37.6945118
562,Black Rock Primary School,3193,145.021651,-37.969869
564,Kilsyth Primary School,3137,145.3149427,-37.80210649
566,Spotswood Primary School,3015,144.881736,-37.830451
568,Noble Park Primary School,3174,145.173906,-37.970627
569,Deepdene Primary School,3103,145.061355,-37.808366
575,Glen Huntly Primary School,3163,145.0462294,-37.89377084
577,Wantirna Primary School,3152,145.216509,-37.856256
580,Chelsea Primary School,3196,145.12231,-38.054889
581,Hampton Primary School,3188,145.003476,-37.93339
582,Victorian College For The Deaf,3004,144.982306,-37.849774
584,Edithvale Primary School,3196,145.11297,-38.037494
586,Penders Grove Primary School,3071,145.01427,-37.754517
588,Caulfield Junior College,3161,145.021561,-37.87211
589,Seaford Primary School,3198,145.130496,-38.104436
590,Wattle Park Primary School,3125,145.09737,-37.842635
592,Preston West Primary School,3072,144.99553,-37.737366
593,Thornbury Primary School,3071,144.996748,-37.755425
594,Footscray West Primary School,3012,144.875267,-37.794867
595,Wandin North Primary School,3139,145.409713,-37.769783
596,Gardenvale Primary School,3187,145.015034,-37.904679
597,Beaumaris Primary School,3193,145.037586,-37.985272
600,Altona Primary School,3018,144.822742,-37.867708
602,Upper Ferntree Gully Primary School,3156,145.314325,-37.895604
607,Hurstbridge Primary School,3099,145.19812,-37.635897
608,Coburg West Primary School,3058,144.947624,-37.74715
609,Elwood Primary School,3184,144.988364,-37.881505
610,Mont Albert Primary School,3127,145.102727,-37.813079
612,Strathewen Primary School,3099,145.270094,-37.547579
613,Don Valley Primary School,3139,145.5874128,-37.76019989
614,Reservoir Primary School,3073,145.00677,-37.71142
621,Moonee Ponds Primary School,3039,144.932986,-37.763341
622,Kingsville Primary School,3013,144.874657,-37.812595
624,Essendon North Primary School,3041,144.903193,-37.741516
625,Ascot Vale West Primary School,3032,144.911125,-37.78068
626,Hartwell Primary School,3124,145.084466,-37.848051
628,Wattle Glen Primary School,3096,145.182037,-37.66884
631,Ripponlea Primary School,3183,145.005054,-37.874608
633,Montmorency Primary School,3094,145.121599,-37.717652
635,Ringwood North Primary School,3134,145.230739,-37.79313
637,Lloyd Street Primary School,3145,145.056108,-37.872416
638,Bayswater North Primary School,3153,145.295621,-37.8288
639,Westbreen Primary School,3044,144.935476,-37.716291
640,Point Cook Prep - Year 9 College,3030,144.7244931,-37.89380261
641,Footscray North Primary School,3011,144.883372,-37.787746
643,Camberwell South Primary School,3146,145.062612,-37.847905
644,Parkdale Primary School,3195,145.083098,-37.992792
645,Hughesdale Primary School,3166,145.077639,-37.905839
646,Westgarth Primary School,3070,145.005561,-37.776471
647,Auburn South Primary School,3123,145.045894,-37.839263
648,Aspendale Primary School,3195,145.099756,-38.020273
649,Eltham North Primary School,3095,145.1508655,-37.70011091
651,Dandenong West Primary School,3175,145.200416,-37.980741
652,Yarra Road Primary School,3136,145.272227,-37.766401
653,Aberfeldie Primary School,3040,144.894774,-37.756488
656,Dingley Primary School,3172,145.132498,-37.982602
658,Albion Primary School,3020,144.819753,-37.778083
661,Nepean Special School,3198,145.14233,-38.119433
662,Brunswick South West Primary School,3055,144.943522,-37.770575
663,Bell Primary School,3072,144.990613,-37.747698
664,Chatham Primary School,3127,145.091603,-37.817647
665,Caulfield South Primary School,3162,145.030799,-37.895253
666,Ashburton Primary School,3147,145.083622,-37.862199
670,Briar Hill Primary School,3088,145.116219,-37.708307
673,Clayton South Primary School,3169,145.11644,-37.940477
674,Ivanhoe East Primary School,3079,145.059453,-37.774587
678,Brunswick North West Primary School,3055,144.943592,-37.756708
681,Sandringham East Primary School,3191,145.022221,-37.956668
682,Seaholme Primary School,3018,144.839906,-37.864212
684,Travancore School,3032,144.934867,-37.781903
685,Upwey Primary School,3158,145.3328027,-37.90286736
686,Coburg North Primary School,3058,144.951854,-37.736171
687,Rosanna Primary School,3084,145.062899,-37.735395
688,Wantirna South Primary School,3152,145.237339,-37.872529
689,Strathmore Primary School,3041,144.917004,-37.735512
690,Balwyn North Primary School,3104,145.077044,-37.796699
691,Solway Primary School,3147,145.07283,-37.873238
694,Newlands Primary School,3072,144.985377,-37.730113
702,Newport Gardens Primary School,3015,144.868832,-37.845209
704,Malvern Valley Primary School,3145,145.08149,-37.880704
706,Belmore School,3103,145.081145,-37.804284
707,Croxton Special School,3070,144.9873978,-37.76399724
709,Frankston East Primary School,3199,145.145528,-38.14663
710,Selby Primary School,3159,145.367517,-37.911431
711,Reservoir East Primary School,3073,145.021837,-37.719975
716,Greythorn Primary School,3104,145.095963,-37.801427
721,Eastwood Primary School,3135,145.252949,-37.817239
722,Pascoe Vale South Primary School,3044,144.935615,-37.745716
723,Lalor Primary School,3075,145.025391,-37.670077
724,Reservoir West Primary School,3073,144.990229,-37.722135
725,Coatesville Primary School,3165,145.073631,-37.920083
726,Old Orchard Primary School,3130,145.152511,-37.807568
727,Huntingdale Primary School,3167,145.102359,-37.913075
728,Box Hill North Primary School,3129,145.123311,-37.800792
729,Ferntree Gully North Primary School,3156,145.299422,-37.874787
731,Oak Park Primary School,3046,144.915042,-37.715528
732,Dandenong North Primary School,3175,145.214468,-37.976641
735,Harrisfield Primary School,3174,145.179896,-37.954443
736,Pascoe Vale North Primary School,3044,144.94848,-37.721258
737,Belle Vue Primary School,3104,145.078653,-37.782523
740,St Albans East Primary School,3021,144.811089,-37.742167
743,Sunshine Heights Primary School,3020,144.818159,-37.79222
744,Sunshine North Primary School,3020,144.837192,-37.77201
745,Banyule Primary School,3084,145.077938,-37.743611
747,Rosanna Golf Links Primary School,3084,145.0741188,-37.73512039
748,Cheltenham East Primary School,3192,145.068353,-37.965256
752,Preston North East Primary School,3072,145.029455,-37.733052
755,Craigieburn Primary School,3064,144.933545,-37.582645
759,Valkstone Primary School,3165,145.057169,-37.914608
760,Overport Primary School,3199,145.126972,-38.160488
761,Wembley Primary School,3013,144.874427,-37.821038
762,Rosamond Special School,3019,144.8554086,-37.77963666
763,Bonbeach Primary School,3196,145.125645,-38.066493
764,Heatherhill Primary School,3171,145.158148,-37.962648
765,Beaumaris North Primary School,3193,145.036614,-37.974239
767,Yarraman Oaks Primary School,3174,145.191525,-37.970289
768,Mount Pleasant Road Nunawading Primary School,3131,145.180091,-37.828587
769,Glenroy West Primary School,3046,144.908293,-37.704957
770,Dandenong South Primary School,3175,145.2114331,-37.99895163
771,St Albans North Primary School,3021,144.80201,-37.731745
772,Avondale Primary School,3034,144.861529,-37.766157
773,Beverley Hills Primary School,3109,145.159841,-37.796243
775,Frankston Heights Primary School,3199,145.147173,-38.161808
776,Kerrimuir Primary School,3129,145.135249,-37.803679
777,Heathmont East Primary School,3135,145.257688,-37.830346
778,Strathmore North Primary School,3041,144.915976,-37.724863
779,Oakleigh South Primary School,3167,145.0947041,-37.92220601
780,Thomastown East Primary School,3074,145.024899,-37.680325
781,Mount Waverley Heights Primary School,3149,145.11184,-37.888999
782,East Bentleigh Primary School,3165,145.069424,-37.934506
783,Watsonia Primary School,3087,145.086916,-37.707027
784,Parktone Primary School,3195,145.08824,-37.987109
785,Antonio Park Primary School,3132,145.206002,-37.816188
786,Kingsbury Primary School,3083,145.037204,-37.716025
788,Ardeer Primary School,3022,144.800494,-37.781074
789,Westall Primary School,3169,145.135744,-37.942188
790,Tullamarine Primary School,3043,144.87957,-37.702204
792,Park Orchards Primary School,3114,145.215918,-37.779519
793,Albion North Primary School,3020,144.823039,-37.762121
794,Blackburn Lake Primary School,3130,145.166097,-37.827601
795,Laburnum Primary School,3130,145.139208,-37.827098
797,Heatherwood School,3111,145.1780362,-37.80033733
799,Pinewood Primary School,3149,145.142339,-37.890118
800,Broadmeadows Primary School,3047,144.928493,-37.680191
801,Moomba Park Primary School,3060,144.967219,-37.69576
802,Keilor Heights Primary School,3033,144.866495,-37.737516
803,Ainslie Parklands Primary School,3136,145.264244,-37.793786
804,Parkmore Primary School,3131,145.177183,-37.843844
806,Mullum Primary School,3134,145.239443,-37.797737
808,Viewbank Primary School,3084,145.08999,-37.73473
809,Greenhills Primary School,3088,145.118648,-37.692278
810,Upwey South Primary School,3158,145.3268393,-37.91313917
812,Eltham East Primary School,3095,145.154861,-37.711432
813,Belvedere Park Primary School,3198,145.146925,-38.109838
814,Essex Heights Primary School,3149,145.115635,-37.862991
815,Mountain Gate Primary School,3156,145.269706,-37.885691
816,Fairhills Primary School,3156,145.264799,-37.8696
817,Boronia West Primary School,3155,145.278481,-37.858563
818,Southmoor Primary School,3189,145.056969,-37.941178
819,Ringwood Heights Primary School,3134,145.217212,-37.804226
820,Glenroy Specialist School,3046,144.9205292,-37.69935785
821,Ruskin Park Primary School,3136,145.29616,-37.798944
822,Emerson School,3175,145.208098,-37.969865
824,Karingal Primary School,3199,145.152277,-38.137924
825,Mount View Primary School,3150,145.178805,-37.883485
826,Syndal South Primary School,3149,145.143301,-37.879086
827,Montmorency South Primary School,3094,145.12989,-37.724916
828,Berendale School,3188,145.031808,-37.938959
829,Altona North Primary School,3025,144.849169,-37.836977
830,Burwood Heights Primary School,3151,145.163275,-37.846754
832,Watsonia Heights Primary School,3088,145.100728,-37.715299
834,Pembroke Primary School,3138,145.327244,-37.796796
835,Mahogany Rise Primary School,3200,145.157399,-38.125617
837,Bundoora Primary School,3083,145.062989,-37.707339
838,University Park Primary School,3021,144.80307,-37.754886
839,St Albans Heights Primary School,3021,144.810368,-37.748654
841,Hume Valley School,3047,144.927013,-37.672396
842,Mentone Park Primary School,3194,145.082797,-37.98001
843,Donvale Primary School,3111,145.173778,-37.800414
845,Boronia Heights Primary School,3155,145.296485,-37.844571
846,Glenallen School,3150,145.1617465,-37.8883595
849,Bayswater South Primary School,3153,145.261347,-37.854897
850,Seaford North Primary School,3198,145.133607,-38.09016
852,Lalor East Primary School,3074,145.035535,-37.67658
853,Jackson School,3021,144.814184,-37.756022
854,Carlton Primary School,3053,144.97045,-37.795602
856,Templestowe Valley Primary School,3107,145.10938,-37.760611
857,Highvale Primary School,3150,145.174068,-37.867021
858,Watsonia North Primary School,3087,145.080509,-37.700395
859,Wooranna Park Primary School,3175,145.216358,-37.960245
860,Knox Park Primary School,3180,145.251402,-37.883627
861,Birralee Primary School,3108,145.113348,-37.793418
863,Derinya Primary School,3199,145.120945,-38.174436
864,Thomastown West Primary School,3074,145.0007873,-37.67870395
865,Rowville Primary School,3178,145.237108,-37.922924
866,Mossfiel Primary School,3029,144.696117,-37.872881
867,Templestowe Heights Primary School,3107,145.119353,-37.767214
868,Ballam Park Primary School,3199,145.158282,-38.147457
870,Gladstone Park Primary School,3043,144.886579,-37.687146
871,Manchester Primary School,3138,145.308401,-37.772266
872,Glendal Primary School,3150,145.159037,-37.867082
873,Bimbadeen Heights Primary School,3138,145.3211445,-37.77376388
874,Wattle View Primary School,3156,145.278016,-37.875825
875,Sherbourne Primary School,3088,145.130077,-37.708908
876,Donburn Primary School,3109,145.165525,-37.787456
879,Royal Childrens Hospital Education Institute,3052,144.9509694,-37.79434935
880,Vermont South Special School,3133,145.180596,-37.85114
881,Concord School,3083,145.075008,-37.701999
882,Deer Park West Primary School,3023,144.764437,-37.772
883,Campbellfield Heights Primary School,3061,144.96587,-37.674326
884,Lalor North Primary School,3075,145.0285352,-37.66415051
886,Diamond Creek East Primary School,3089,145.165596,-37.674193
887,Brandon Park Primary School,3150,145.173248,-37.914319
888,Bayswater West Primary School,3153,145.253048,-37.849069
891,Aldercourt Primary School,3200,145.161618,-38.116618
892,Richmond West Primary School,3121,144.995735,-37.813626
893,Marlborough Primary School,3135,145.232942,-37.836412
894,Stevensville Primary School,3021,144.781207,-37.736097
896,Woodville Primary School,3029,144.69123,-37.883771
897,Glengala Primary School,3020,144.814068,-37.798987
898,Karingal Heights Primary School,3199,145.166813,-38.141476
899,Wallarano Primary School,3174,145.170823,-37.979621
900,Victoria Road Primary School,3140,145.336107,-37.755181
901,Mooroolbark East Primary School,3138,145.335705,-37.78680042
902,Ardeer South Primary School,3020,144.798996,-37.788396
903,Gladesville Primary School,3137,145.3229128,-37.811101
905,Debney Meadows Primary School,3031,144.935148,-37.785985
907,Tinternvale Primary School,3135,145.265345,-37.818406
910,Naranga Special School,3199,145.163005,-38.147158
911,Kent Park Primary School,3156,145.262733,-37.883491
912,Deer Park North Primary School,3023,144.774029,-37.756135
913,Rosewood Downs Primary School,3175,145.213459,-37.944112
916,Manorvale Primary School,3030,144.643892,-37.89406
917,Gladstone Views Primary School,3043,144.89837,-37.68901
918,Wheelers Hill Primary School,3150,145.177594,-37.90017
919,Ashwood School,3147,145.107162,-37.859665
920,Broadmeadows Valley Primary School,3047,144.914095,-37.681404
921,Bulleen Heights School,3105,145.09506,-37.763285
922,Kingston Heath Primary School,3192,145.07907,-37.962778
923,Andersons Creek Primary School,3113,145.20768,-37.74822
924,Waverley Meadows Primary School,3150,145.184278,-37.914752
925,Kingswood Primary School,3172,145.123796,-37.982996
926,Ascot Vale Heights School,3032,144.932355,-37.776821
927,Camelot Rise Primary School,3150,145.187775,-37.865278
928,Livingstone Primary School,3133,145.18067,-37.85289
930,St Albans Meadows Primary School,3021,144.817775,-37.753367
931,Silverton Primary School,3174,145.192882,-37.949229
932,Kalinda Primary School,3134,145.254827,-37.7893
935,Templestowe Park Primary School,3106,145.143259,-37.756273
937,Regency Park Primary School,3152,145.236165,-37.854873
938,Dorset Primary School,3136,145.285748,-37.810084
940,Thomastown Meadows Primary School,3074,144.993096,-37.682589
941,Kingsley Park Primary School,3199,145.155704,-38.16808
943,Movelle Primary School,3021,144.775361,-37.737711
946,Yarrabah School,3195,145.096687,-38.013994
947,Frankston Special Developmental School,3199,145.170197,-38.143298
948,Waratah Special Developmental School,3081,145.040741,-37.756289
951,Monash Special Developmental School,3150,145.1657962,-37.9069788
952,Iramoo Primary School,3024,144.628567,-37.895871
954,Weeden Heights Primary School,3133,145.177637,-37.85916
955,Mill Park Primary School,3082,145.0658816,-37.6746058
956,Diamond Valley Special Developmental School,3088,145.1116531,-37.68675447
958,Springvale Park Special Developmental School,3171,145.1543122,-37.94935521
959,Warringa Park School,3029,144.687587,-37.884042
960,Serpell Primary School,3106,145.155574,-37.769901
962,Altona Meadows Primary School,3028,144.779729,-37.868687
965,Jells Park Primary School,3150,145.192851,-37.902837
966,Albanvale Primary School,3021,144.774419,-37.744023
970,Apollo Parkways Primary School,3088,145.1098731,-37.68739459
972,Bethal Primary School,3048,144.917819,-37.659196
974,Patterson Lakes Primary School,3197,145.144792,-38.069838
975,Seaford Park Primary School,3198,145.15444,-38.105038
977,Chirnside Park Primary School,3116,145.311342,-37.750071
979,Templeton Primary School,3152,145.232288,-37.860941
987,Croydon Special Developmental School,3136,145.280781,-37.815627
988,Milgate Primary School,3109,145.175188,-37.773798
990,Furlong Park School For Deaf Children,3020,144.8271,-37.761437
991,Jennings Street School,3028,144.773634,-37.85635
993,Northern School For Autism,3073,145.0299342,-37.70058524
997,Burwood East Special Developmental School,3151,145.142122,-37.857201
999,Meadow Heights Primary School,3048,144.923844,-37.650423
1004,Knox Gardens Primary School,3152,145.229582,-37.882282
1006,Kings Park Primary School,3021,144.767544,-37.733151
1009,Bayside Special Developmental School,3189,145.056804,-37.943358
1010,Rolling Hills Primary School,3138,145.32684,-37.766514
1011,Craigieburn South Primary School,3064,144.935852,-37.608753
1012,Findon Primary School,3082,145.0510724,-37.66649725
1018,Southern Autistic School,3165,145.0620819,-37.92671866
1019,Bellbridge Primary School,3029,144.71078,-37.871082
1020,Croydon Hills Primary School,3136,145.272045,-37.776679
1023,Taylors Lakes Primary School,3038,144.793766,-37.709651
1024,Glen Katherine Primary School,3095,145.139837,-37.689982
1025,Coburg Special Developmental School,3058,144.951739,-37.732916
1026,Broadmeadows Special Developmental School,3047,144.914104,-37.68164744
1027,Sunshine Special Developmental School,3020,144.819889,-37.80343497
1029,Richmond Primary School,3121,144.9990734,-37.82956905
1030,Yarra Primary School,3121,145.007482,-37.814639
1035,Yarraville Special Developmental School,3013,144.883653,-37.817905
1037,Park Ridge Primary School,3178,145.262461,-37.918414
1040,Merriang Special Developmental School,3075,145.0150833,-37.66723751
1041,Orchard Grove Primary School,3130,145.146528,-37.84023
1042,Meadowglen Primary School,3076,145.0530862,-37.64274926
1043,Altona Green Primary School,3028,144.784916,-37.886773
1044,Boroondara Park Primary School,3104,145.087893,-37.789437
1046,Western Autistic School,3028,144.7780691,-37.85078167
1051,Karoo Primary School,3178,145.263279,-37.905324
1052,Mackellar Primary School,3037,144.777528,-37.717234
1055,Aspendale Gardens Primary School,3195,145.116796,-38.022512
1058,Eastern Ranges School,3156,145.2849193,-37.88042006
1061,Cambridge Primary School,3029,144.675695,-37.867389
1063,Baden Powell P-9 College,3029,144.691019,-37.859838
1065,Mill Park Heights Primary School,3082,145.051747,-37.657331
1066,Monmia Primary School,3038,144.79205,-37.717269
1067,Seabrook Primary School,3028,144.757899,-37.878842
1068,Willmott Park Primary School,3064,144.922592,-37.591778
1069,Thomas Chirnside Primary School,3030,144.637883,-37.903205
1070,Heany Park Primary School,3178,145.24288,-37.933923
1076,Riverwalk Primary School,3030,144.639329,-37.921032
1077,Niddrie Autistic School (interim name),3042,144.887062,-37.743926
1079,Westgrove Primary School,3030,144.659529,-37.878502
1110,Niddrie Primary School,3042,144.878433,-37.7308455
1111,Keelonith Primary School,3059,144.878837,-37.623205
1114,Parkhill Primary School,3147,145.106871,-37.86288
1115,Kananook Primary School,3198,145.131738,-38.125159
1116,Roberts McCubbin Primary School,3128,145.125206,-37.834767
1119,Le Page Primary School,3192,145.0681429,-37.95926069
1121,Glen Waverley Primary School,3150,145.167589,-37.874716
1122,Carrington Primary School,3180,145.246491,-37.891476
1123,Albany Rise Primary School,3170,145.172891,-37.928122
1124,Amsleigh Park Primary School,3166,145.108784,-37.900321
1125,Knox Central Primary School,3155,145.254975,-37.86116
1126,Mount Waverley North Primary School,3149,145.141352,-37.868017
1127,Rangeview Primary School,3132,145.206302,-37.829577
1131,Carwatha College P-12,3174,145.188726,-37.942845
1132,Glen Waverley South Primary School,3150,145.1676109,-37.89685885
1133,Streeton Primary School,3085,145.102224,-37.721556
1138,Roxburgh Homestead Primary School,3064,144.916279,-37.632064
1140,Dinjerra Primary School,3019,144.856117,-37.791693
1141,Belle Vue Park Primary School,3046,144.943937,-37.701198
1142,Doncaster Gardens Primary School,3109,145.1479,-37.781607
1146,Great Ryrie Primary School,3135,145.237626,-37.823797
1148,Parkwood Green Primary School,3037,144.74446,-37.699206
1150,Roxburgh Park Primary School,3064,144.931401,-37.634239
1151,Carranballac P-9 College,3030,144.743132,-37.884736
1153,Caulfield Primary School,3162,145.0200308,-37.888054
1155,Roxburgh Rise Primary School,3064,144.923504,-37.616207
1159,Truganina South Primary School,3029,144.725651,-37.86453
1160,Kororoit Creek Primary School,3023,144.754581,-37.735031
1161,Harvest Home Primary School,3076,145.00226,-37.622078
1162,Truganina P-9 College,3029,144.7190874,-37.83876718
1163,Burnside Primary School,3023,144.75289,-37.74566
1166,Davis Creek Primary School,3029,144.660236,-37.855876
1168,Taylors Hill Primary School,3037,144.7599018,-37.71669468
1170,Aurora School,3130,145.1507912,-37.84017872
1171,Derrimut Primary School,3026,144.7632008,-37.78926806
1172,Epping Views Primary School,3076,145.024015,-37.628439
1177,Aitken Creek Primary School,3064,144.905568,-37.58175
1178,Reservoir Views Primary School,3073,145.022725,-37.705518
1179,Meadows Primary School,3047,144.92956,-37.687539
1181,Sunshine Harvester Primary School,3020,144.845687,-37.782934
1183,Alamanda K-9 College,3030,144.741329,-37.908238
1184,Whitehorse Primary School,3130,145.1669863,-37.80746673
1186,Lalor Gardens Primary School,3075,145.0013492,-37.66369312
1187,Chandler Park Primary School,3173,145.180477,-37.992396
1188,Keysborough Primary School,3172,145.152418,-37.982629
1189,Lyndale Greens Primary School,3175,145.204651,-37.965052
1190,Athol Road Primary School,3172,145.149968,-37.971049
1191,Springvale Rise Primary School,3171,145.159045,-37.939258
1192,Spring Parks Primary School,3171,145.139507,-37.958843
1193,Keilor Views Primary School,3038,144.809188,-37.717649
1194,Wyndham Park Primary School,3030,144.67655,-37.884867
1196,Glenroy Central Primary School,3046,144.925037,-37.704276
1197,William Ruthven Primary School,3073,145.0027816,-37.69666885
1198,Newbury Primary School,3064,144.909548,-37.570989
1199,Dallas Brooks Community Primary School,3047,144.941852,-37.670302
1201,Wyndham Vale Primary School,3024,144.609606,-37.895558
1203,Epping Primary School,3076,145.0255944,-37.64485061
1206,Coolaroo South Primary School,3048,144.930905,-37.66206
1207,Jacana School for Autism,3047,144.913093,-37.687625
1211,South Melbourne Primary School,3006,144.9535,-37.829347
1219,Aitken Hill Primary School,3064,144.905558,-37.601714
1224,Keysborough Gardens Primary School,3173,145.161324,-38.009508
1225,Docklands Primary School,3008,144.940553,-37.812714
1226,Garrang Wilam Primary School,3029,144.72505,-37.828778
1228,Gaayip-Yagila Primary School,3064,144.909089,-37.528608
1229,Riverbend Primary School,3024,144.625256,-37.876676
1236,Collingwood College,3066,144.990497,-37.802985
1249,Macleod College,3085,145.072218,-37.724746
1259,Virtual School Victoria,3071,145.025701,-37.76204
1261,Victorian School Of Languages,3071,145.0258329,-37.7619483
1262,Avenues Education,3189,145.036279,-37.934579
1263,Monash Children's Hospital School,3168,145.124252,-37.91938
1264,Mount Erin Secondary College,3199,145.14663,-38.174118
1265,Box Hill Senior Secondary College,3129,145.111907,-37.809243
1267,Elevation Secondary College,3064,144.890252,-37.598288
1275,Peter Lalor Secondary College,3075,145.0131559,-37.66690584
1276,Lilydale Heights College,3140,145.3414068,-37.7458221
1279,Bentleigh Secondary College,3165,145.059798,-37.927357
1281,Rosehill Secondary College,3042,144.886183,-37.746679
1282,Northern College of the Arts and Technology,3072,145.025372,-37.740069
1283,Swinburne Senior Secondary College,3122,145.040821,-37.823135
1284,Victorian College Of The Arts Secondary School,3006,144.964767,-37.828229
1286,Wyndham Central Secondary College,3030,144.65385,-37.888932
1290,Auburn High School,3123,145.045067,-37.83988
1292,Balwyn High School,3104,145.0767724,-37.79785922
1293,Bayswater Secondary College,3153,145.261998,-37.83903
1295,Beaumaris Secondary College,3193,145.034078,-37.978396
1300,Blackburn High School,3130,145.149893,-37.81037
1302,Box Hill High School,3128,145.137208,-37.820003
1303,Braybrook College,3019,144.847537,-37.778257
1304,Brentwood Secondary College,3150,145.1663432,-37.89950842
1305,Brighton Secondary College,3187,145.019119,-37.920156
1307,Buckley Park College,3040,144.897755,-37.747117
1308,Camberwell High School,3126,145.072821,-37.830151
1309,Canterbury Girls Secondary College,3126,145.069102,-37.820289
1311,Cheltenham Secondary College,3192,145.068676,-37.953762
1316,Croydon Community School,3136,145.278928,-37.798422
1317,Mount Alexander 7-12 College,3031,144.933235,-37.782154
1319,East Doncaster Secondary College,3109,145.158557,-37.782127
1321,Doncaster Secondary College,3108,145.138053,-37.784581
1324,Eltham High School,3095,145.141725,-37.724436
1325,Elwood College,3184,144.985203,-37.88232
1326,Epping Secondary College,3076,145.033426,-37.644001
1328,Fairhills High School,3180,145.259037,-37.87321
1330,Footscray High School,3011,144.8937633,-37.79104291
1332,Frankston High School,3199,145.129706,-38.162156
1336,Gladstone Park Secondary College,3043,144.890003,-37.689766
1337,Bundoora Secondary College,3083,145.061977,-37.707501
1342,Highvale Secondary College,3150,145.17682,-37.865409
1344,Kensington Community High School,3031,144.925577,-37.787909
1345,Kew High School,3102,145.063358,-37.795546
1346,Koonung Secondary College,3129,145.117561,-37.80219
1351,Lalor Secondary College,3075,145.0306228,-37.67265939
1352,Lalor North Secondary College,3076,145.034124,-37.660767
1353,Lilydale High School,3140,145.343917,-37.760697
1355,Lyndale Secondary College,3175,145.206712,-37.958765
1356,Lynall Hall Community School,3121,145.002257,-37.816477
1359,Maribyrnong Secondary College,3032,144.888238,-37.779521
1361,Melbourne High School,3141,144.995314,-37.836829
1363,Mentone Girls Secondary College,3194,145.053504,-37.980182
1367,Montmorency Secondary College,3094,145.113611,-37.714075
1368,Mooroolbark College,3138,145.3142304,-37.77508326
1369,Mordialloc College,3195,145.092675,-38.012243
1372,Mount Waverley Secondary College,3149,145.132311,-37.869086
1374,MacRobertson Girls High School,3004,144.971862,-37.835886
1378,Northcote High School,3070,144.989706,-37.774156
1379,Norwood Secondary College,3134,145.237605,-37.799752
1386,Parkdale Secondary College,3195,145.093501,-37.990301
1387,Pascoe Vale Girls Secondary College,3044,144.935499,-37.717564
1388,Prahran High School,3181,144.9911611,-37.85174882
1389,Preston High School,3072,145.006401,-37.741692
1390,Princes Hill Secondary College,3054,144.96503,-37.783481
1391,Homestead Senior Secondary College,3030,144.766892,-37.91615
1395,Ringwood Secondary College,3134,145.239147,-37.816606
1396,Richmond High School,3121,145.002804,-37.817408
1402,Saltwater P-9 College,3030,144.770284,-37.91133
1403,Scoresby Secondary College,3179,145.2362,-37.888642
1404,St Albans Secondary College,3021,144.808411,-37.745532
1406,Oakwood School,3161,145.034173,-37.87398
1407,Strathmore Secondary College,3041,144.926643,-37.73695
1409,Sydney Road Community School,3056,144.961878,-37.769691
1411,Thomastown Secondary College,3074,145.0019385,-37.67871605
1413,Dohertys Creek P-9 College,3029,144.733911,-37.842976
1414,University High School,3052,144.95538,-37.796982
1415,Roxburgh College,3064,144.930331,-37.63041
1417,Upwey High School,3158,145.335475,-37.904357
1418,Vermont Secondary College,3133,145.199701,-37.844117
1422,Wantirna College,3152,145.229974,-37.857598
1424,Warrandyte High School,3113,145.184222,-37.748269
1425,Wellington Secondary College,3170,145.169378,-37.934467
1426,Werribee Secondary College,3030,144.668744,-37.905536
1428,Westall Secondary College,3169,145.136577,-37.940312
1429,Wheelers Hill Secondary College,3150,145.181743,-37.910126
1430,Williamstown High School,3016,144.895024,-37.862855
1435,Glen Eira College,3145,145.038006,-37.8857
1436,Craigieburn Secondary College,3064,144.9359541,-37.60875112
1438,Reservoir High School,3073,145.029772,-37.722259
1440,Hoppers Crossing Secondary College,3029,144.695358,-37.871223
1441,Keilor Downs Secondary College,3038,144.811186,-37.715515
1447,Forest Hill College,3151,145.163728,-37.848519
1448,Patterson River Secondary College,3198,145.134741,-38.083504
1449,St Helena Secondary College,3095,145.1399078,-37.68686717
1451,Rowville Secondary College,3178,145.2370885,-37.92388682
1453,Sandringham College,3191,145.023034,-37.956709
1454,Fitzroy High School,3068,144.987476,-37.784911
1455,Ashwood High School,3147,145.103328,-37.864527
1456,Mullauna Secondary College,3132,145.190155,-37.807109
1458,Diamond Valley College,3089,145.167403,-37.672828
1459,Blackburn English Language School,3151,145.148292,-37.847889
1460,Collingwood English Language School,3066,144.9847995,-37.80784119
1461,Noble Park English Language School,3174,145.178166,-37.971168
1462,Greensborough Secondary College,3088,145.091251,-37.708486
1464,Mill Park Secondary College,3082,145.063414,-37.664155
1466,The Grange P-12 College,3029,144.6749381,-37.8581346
1468,Taylors Lakes Secondary College,3038,144.794402,-37.70741
1469,Sunshine College,3020,144.81382,-37.793158
1471,Thornbury High School,3071,145.0252135,-37.75649469
1473,Copperfield College,3037,144.772426,-37.719463
1474,Bayside P-12 College,3016,144.8852138,-37.85770007
1475,South Oakleigh Secondary College,3167,145.089768,-37.92232068
1479,Essendon Keilor College,3033,144.8697108,-37.73970794
1480,Brunswick Secondary College,3056,144.95501,-37.770899
1481,Glen Waverley Secondary College,3150,145.162106,-37.878098
1482,Monterey Secondary College,3200,145.147724,-38.126124
1484,Viewbank College,3084,145.08659,-37.741196
1485,Noble Park Secondary College,3174,145.182369,-37.970209
1487,Yarra Hills Secondary College,3138,145.316184,-37.78934
1488,Heathmont College,3135,145.2321036,-37.83842619
1490,Melbourne Girls College,3121,145.014334,-37.822507
1493,Templestowe College,3107,145.122306,-37.767428
1502,McClelland Secondary College,3199,145.158453,-38.14632
1504,Western English Language School,3019,144.8540362,-37.790995
1511,Point Cook Senior Secondary College,3030,144.73282,-37.886718
1512,Manor Lakes P-12 College,3024,144.601853,-37.873507
1513,Coburg High School,3058,144.9728,-37.7407
1515,Mount Ridley P-12 College,3064,144.9231944,-37.58030966
1516,Tarneit Senior College,3029,144.6804061,-37.83335386
1519,Altona College,3018,144.818639,-37.861911
1520,Dandenong High School,3175,145.209011,-37.979418
1522,Laverton P-12 College,3028,144.7726329,-37.85617409
1523,Hume Central Secondary College,3047,144.915355,-37.680442
1526,Suzanne Cory High School,3030,144.700748,-37.893852
1527,Keysborough Secondary College,3172,145.159839,-37.967017
1535,Tarneit Rise Primary School,3029,144.665822,-37.836183
1541,Charles La Trobe P-12 College,3085,145.05865,-37.728966
1542,Victoria University Secondary College,3021,144.785626,-37.740102
1544,Glenroy Secondary College,3046,144.9249952,-37.70470214
1545,John Fawkner Secondary College,3060,144.9718587,-37.70271075
1546,William Ruthven Secondary College,3073,145.002774,-37.696666
1549,Featherbrook P-9 College,3030,144.7275192,-37.90163614
1554,Doveton College,3177,145.243173,-37.989449
1556,Brookside P-9 College,3023,144.737222,-37.746339
1557,Creekside K-9 College,3023,144.738037,-37.73445
1558,Lakeview Senior College,3023,144.740281,-37.731016
1559,Springside Primary School,3023,144.7386746,-37.71117852
1560,Melba Secondary College,3136,145.262016,-37.795523
1561,Boronia K-12 College,3155,145.293268,-37.8583
1562,Tarneit P-9 College,3029,144.679815,-37.837451
1564,Parkville College,3052,144.94736,-37.776815
1565,Wesley College,3004,144.982144,-37.84883
1566,Korowa Anglican Girls' School,3146,145.054637,-37.861454
1567,Parade College,3083,145.066978,-37.690178
1568,Simonds Catholic College,3003,144.952883,-37.805971
1569,St Maryâ€™s College Melbourne,3183,144.997001,-37.859365
1576,Sacred Heart School,3015,144.881396,-37.840028
1577,St Mary's School,3016,144.900894,-37.863498
1578,Ruyton Girls' School,3101,145.039181,-37.811111
1579,Caulfield Grammar School,3183,145.004887,-37.877377
1580,St Michael's School,3051,144.946246,-37.793305
1582,Presentation College Windsor,3181,144.9947188,-37.85764134
1583,St Mary's School,3183,144.997592,-37.859021
1585,St Brendan's School,3031,144.931728,-37.784696
1591,St Joseph's School,3122,145.034315,-37.826461
1592,Sacre Coeur,3146,145.051572,-37.861753
1593,St Joseph's School,3070,144.996721,-37.774621
1594,Sacred Heart School,3072,145.003768,-37.744807
1613,Star of the Sea College,3186,144.99678,-37.896734
1614,St James' School,3186,144.997657,-37.897945
1615,St Peter's School,3165,145.070911,-37.923044
1616,Methodist Ladies' College,3101,145.038491,-37.813951
1625,Christ Church Grammar School,3141,144.985738,-37.838952
1626,St Paul's School,3058,144.967855,-37.738929
1627,St Andrew's School,3030,144.650573,-37.901272
1634,Fintona Girls' School,3103,145.080326,-37.815158
1636,Lauriston Girls' School,3143,145.025089,-37.852317
1638,Xavier College,3101,145.031105,-37.813858
1645,Trinity Grammar School Kew,3101,145.0355016,-37.81020316
1646,Academy of Mary Immaculate,3065,144.974409,-37.803711
1647,Sacred Heart School,3065,144.978524,-37.802049
1648,Mount Lilydale Mercy College,3140,145.3577545,-37.75075881
1649,St Monica's School,3011,144.906837,-37.801162
1650,St Augustine's School,3013,144.8898972,-37.81370425
1654,Kilbreda College,3194,145.065712,-37.984153
1656,Melbourne Girls Grammar,3141,144.984803,-37.831692
1660,St John's School,3068,144.988217,-37.790342
1667,Presbyterian Ladies' College,3125,145.107002,-37.848559
1668,St Monica's Primary School,3039,144.923184,-37.759665
1669,St Patrick's School,3140,145.3526145,-37.75273475
1670,Catholic Ladies' College Ltd,3095,145.143563,-37.711525
1671,St Joseph's School,3066,144.986388,-37.800459
1674,Sacred Heart School,3101,145.03744,-37.808169
1679,St Aloysius College,3051,144.942875,-37.792892
1683,Our Holy Redeemer School,3127,145.100085,-37.820319
1689,St Columba's College,3040,144.91429,-37.757202
1693,Genazzano FCJ College,3101,145.055783,-37.808973
1696,St Michael's Grammar School,3182,144.991548,-37.859549
1697,St Patrick's School,3194,145.070159,-37.983569
1701,Firbank Grammar School,3186,144.996936,-37.906118
1702,St John's School,3084,145.066548,-37.757641
1703,Our Lady of Mercy College,3084,145.067586,-37.75793
1704,St Joseph's School,3055,144.942984,-37.762289
1705,St Brigid's School,3195,145.091778,-38.00804
1708,Our Lady Help of Christians School,3057,144.977856,-37.776342
1709,St Anthony's School,3163,145.047103,-37.886893
1710,St Mary's School,3175,145.220836,-37.990671
1711,Sacred Heart School,3191,145.008552,-37.951476
1713,St Mary's School,3032,144.911269,-37.773836
1715,De La Salle College,3144,145.032183,-37.857677
1716,St Margaret Mary's School,3056,144.96825,-37.758632
1721,Westbourne Grammar School,3015,144.894928,-37.850191
1722,Ivanhoe Grammar School,3079,145.044477,-37.772515
1725,Scotch College,3122,145.032288,-37.833922
1726,St Mary's School,3145,145.052923,-37.873016
1727,St Leonard's College,3187,145.007554,-37.928631
1728,Holy Rosary School,3031,144.92878,-37.795584
1730,St Anthony's School,3078,145.020362,-37.780069
1731,St Joseph's School,3144,145.031163,-37.858069
1734,St Columba's School,3184,144.981123,-37.88253
1736,Tintern Grammar,3135,145.25669,-37.815515
1741,Our Lady of the Immaculate Conception School,3020,144.835562,-37.78945
1742,St Mary's School,3071,145.001658,-37.75684
1744,St Catherine's School,3142,145.021269,-37.838296
1745,Lowther Hall Anglican Grammar School,3040,144.914974,-37.759908
1747,St Joan of Arc School,3186,144.994149,-37.92011
1749,Penleigh & Essendon Grammar School,3033,144.870337,-37.732154
1750,St John's School,3011,144.885221,-37.795825
1752,Shelford Girls' Grammar,3161,145.011318,-37.877908
1753,Mary Immaculate School,3079,145.038756,-37.771941
1755,Our Lady of Lourdes School,3181,145.009457,-37.852457
1757,Mentone Grammar School,3194,145.068124,-37.987688
1758,Ivanhoe Girls' Grammar School,3079,145.046721,-37.765273
1760,Carey Baptist Grammar School,3101,145.047817,-37.814784
1762,Haileybury College,3173,145.14643,-37.995979
1763,St Therese's School,3040,144.910309,-37.751111
1765,Our Lady of Good Counsel School,3103,145.06279,-37.811081
1766,Strathcona Baptist Girls' Grammar,3126,145.080366,-37.829176
1768,Mentone Girls' Grammar School,3194,145.063465,-37.989375
1769,St Joseph's School,3196,145.118591,-38.055435
1771,St Finbar's School,3187,145.017464,-37.916284
1772,Loreto Mandeville Hall,3142,145.014892,-37.848193
1773,St Dominic's School,3124,145.083836,-37.838918
1774,St Mary's School,3188,145.000898,-37.933052
1777,Camberwell Grammar School,3126,145.066407,-37.816093
1779,Brighton Grammar School,3186,144.993524,-37.911108
1780,St Fidelis' School,3058,144.951561,-37.74984
1781,Huntingtower School,3149,145.136288,-37.876741
1782,St Francis Xavier's School,3128,145.131493,-37.818494
1783,St Mary's School,3018,144.828375,-37.866658
1784,Our Lady Help of Christians School,3095,145.147912,-37.716123
1786,St Francis Xavier School,3199,145.1262013,-38.14879945
1787,Our Lady of Sion College,3128,145.129918,-37.818348
1788,St Gabriel's School,3073,145.005121,-37.718019
1790,St Joseph's School,3193,145.023164,-37.975915
1793,Kingswood College,3128,145.118628,-37.832777
1795,St Patrick's School,3163,145.065265,-37.901775
1796,St Roch's School,3146,145.052313,-37.857364
1798,Camberwell Girls Grammar School,3126,145.059705,-37.818211
1799,St Anne's School,3102,145.049813,-37.79538
1800,Our Lady of Perpetual Help School,3134,145.232182,-37.816423
1801,St Francis Xavier's School,3094,145.1265613,-37.71600768
1803,St Cecilia's School,3146,145.064602,-37.850094
1804,St Joseph's School,3185,145.005287,-37.88251
1806,"Preshil, The Margaret Lyttle Memorial School",3101,145.052212,-37.815934
1807,St Peter's School,3076,145.027548,-37.650542
1808,Santa Maria College,3070,145.00248,-37.770356
1809,Sacred Heart School,3166,145.086915,-37.901835
1810,St Mark's School,3060,144.963618,-37.716278
1811,St John the Baptist School,3156,145.295174,-37.887382
1812,St John's School,3132,145.190401,-37.817445
1814,St Raphael's School,3072,144.992623,-37.734098
1815,St Kevin's College,3142,145.0246967,-37.8353971
1817,St Vincent de Paul's School,3041,144.92413,-37.742142
1819,St Joseph's School,3171,145.150344,-37.953229
1820,St Bede's College,3194,145.068214,-37.991161
1821,Holy Name School,3073,145.018574,-37.730261
1822,Siena College Ltd,3124,145.082575,-37.833662
1823,St Bernard's School,3058,144.972708,-37.747422
1824,St Benedict's School,3125,145.0973996,-37.84949599
1825,St Oliver Plunkett's School,3044,144.941855,-37.730886
1826,Corpus Christi School,3012,144.872915,-37.808532
1828,St Bernard's College,3040,144.8832,-37.749392
1829,Whitefriars College Inc,3111,145.199541,-37.7918
1830,St Michael's School,3147,145.082484,-37.864128
1833,St Bede's School,3104,145.070901,-37.793523
1834,Salesian College,3148,145.100257,-37.882735
1837,Mount Scopus Memorial College,3125,145.117774,-37.847216
1839,Marcellin College,3105,145.082675,-37.774782
1842,St Theresa's School,3020,144.820196,-37.782193
1843,St Bernadette's School,3079,145.034125,-37.763063
1845,St Agnes' School,3190,145.031826,-37.946096
1846,Our Lady of the Assumption School,3192,145.059713,-37.965505
1847,Nunawading Christian College-Primary,3131,145.17005,-37.82192
1848,Sacred Heart School,3136,145.272793,-37.79749
1852,Resurrection House,3040,144.905195,-37.756648
1853,Adass Israel School,3185,145.008205,-37.883899
1854,Holy Spirit School,3071,145.01619,-37.760845
1855,Sacred Heart School,3021,144.800053,-37.73769
1856,St Thomas The Apostle School,3130,145.157434,-37.823247
1860,St Pius X School,3081,145.04629,-37.746924
1861,St Margaret Mary's School,3015,144.877732,-37.829084
1863,St Mary Magdalen's Parish Primary School,3148,145.101198,-37.879776
1864,St Anthony's School,3174,145.172427,-37.97171
1865,St Peter's School,3168,145.121859,-37.92314
1867,Yeshivah College,3183,145.000341,-37.868122
1868,St John Bosco's School,3042,144.889028,-37.743657
1871,St Mary's School,3088,145.092633,-37.702851
1872,Mother of God School,3022,144.800812,-37.779414
1873,St Peter Chanel School,3023,144.769266,-37.768526
1874,Christ the King Primary School,3019,144.86196,-37.787611
1875,Corpus Christi School,3046,144.922802,-37.703891
1876,Killester College,3171,145.152017,-37.959071
1877,St Paul's School,3020,144.807516,-37.787534
1880,Stella Maris School,3193,145.041044,-37.981986
1882,St Bernadette's School,3020,144.835276,-37.771157
1884,Rossbourne School,3122,145.02655,-37.82304
1886,Beth Rivkah Ladies College,3183,145.000835,-37.869281
1887,St Margaret's Primary School,3032,144.891039,-37.766895
1889,Holy Family School,3149,145.129634,-37.874255
1890,St Gerard's School,3175,145.205824,-37.971329
1892,Our Lady of Perpetual Succour School,3127,145.111389,-37.830057
1893,St Catherine's School,3189,145.052171,-37.938224
1894,Sacred Heart Girls' College,3166,145.086083,-37.902163
1899,St Stephen's School,3073,145.019202,-37.711568
1901,St Martin of Tours School,3084,145.076979,-37.735182
1903,Christ Our Holy Redeemer School,3166,145.105753,-37.896158
1904,Our Lady of the Nativity School,3040,144.896581,-37.756347
1905,St John's Regional College,3175,145.226256,-37.990229
1909,Emmaus College,3133,145.174107,-37.84779
1910,St Dominic's School,3047,144.923702,-37.685055
1912,St Bridget's School,3104,145.103253,-37.795925
1913,St Leonard's School,3150,145.163894,-37.886803
1914,St Scholastica's School,3125,145.125908,-37.851646
1915,St Christopher's School,3150,145.1501975,-37.87109838
1916,St John Vianney's School,3195,145.09249,-37.99047
1917,Ss Peter & Paul's School,3109,145.1534,-37.790552
1919,Holy Family School,3177,145.238629,-37.990496
1920,Aquinas College,3134,145.234935,-37.823058
1921,Leibler Yavneh College,3185,145.006626,-37.892871
1923,St Matthew's School,3060,144.967951,-37.698156
1924,St John Vianney's School,3170,145.159559,-37.932718
1925,St Luke's School,3075,145.0188321,-37.67237431
1926,St Francis de Sales School,3046,144.921079,-37.718847
1928,St Thomas More's School,3160,145.3526801,-37.90841476
1930,St Christopher's School,3042,144.880249,-37.72501
1932,Sacred Heart School,3089,145.158777,-37.67214795
1934,Ave Maria College,3040,144.897964,-37.756618
1935,Bialik College,3122,145.043371,-37.842269
1936,Our Lady of the Way School,3083,145.035525,-37.715261
1937,St Luke the Evangelist School,3130,145.146714,-37.835551
1940,Luther College,3136,145.272909,-37.782963
1941,Marian College,3020,144.806129,-37.787731
1942,Mount St Joseph Girls' College,3018,144.811674,-37.863902
1944,St Clement of Rome School,3105,145.090333,-37.767296
1945,St Joseph's Primary School,3155,145.274814,-37.862707
1947,Mater Christi College,3160,145.3588871,-37.9106377
1948,Our Lady of Lourdes School,3153,145.265765,-37.848985
1949,St Joseph's College,3156,145.295093,-37.89049
1950,St Paul's College Balwyn,3101,145.086858,-37.81235
1951,Annunciation School,3012,144.847959,-37.820989
1952,St Louis de Montfort's School,3195,145.102261,-38.018128
1953,St Thomas More's School,3046,144.944942,-37.707293
1954,Avila College,3149,145.133255,-37.874671
1955,St Philip's School,3130,145.166588,-37.807643
1956,Holy Child School,3047,144.931984,-37.665736
1957,Emmanuel College,3025,144.842389,-37.831623
1958,St Peter Julian Eymard,3138,145.3175154,-37.7879128
1959,St Damian's School,3083,145.0572167,-37.6984942
1960,St Monica's College,3076,145.031414,-37.655184
1961,Yarra Valley Grammar,3134,145.258164,-37.783701
1963,Mercy College,3058,144.964562,-37.730398
1964,St Timothy's School,3133,145.183654,-37.840389
1967,St John's School,3199,145.148098,-38.145823
1968,St Mary's College for the Deaf,3152,145.242789,-37.877901
1969,John Paul College,3199,145.138867,-38.13557
1970,St Anne's School,3198,145.140947,-38.106598
1971,Mazenod College,3170,145.166144,-37.915204
1972,St Martin de Porres School,3034,144.861624,-37.758468
1973,St Gregory the Great School,3108,145.122282,-37.780598
1975,St Kevin's School,3107,145.122868,-37.761267
1976,St James' School,3133,145.20969,-37.836748
1977,Good Shepherd School,3150,145.166052,-37.908123
1978,MacKillop Catholic Regional College,3030,144.6651016,-37.90950211
1979,St James'  College,3165,145.071365,-37.926472
1981,St Leo the Great Primary School,3025,144.851693,-37.839216
1982,St Peter's School,3033,144.859418,-37.744237
1985,St Martin de Porres School,3028,144.77698,-37.853783
1986,St Jude the Apostle School,3179,145.225957,-37.889844
1989,Melbourne Rudolf Steiner School,3134,145.248811,-37.777221
1991,St Mark's School,3172,145.129566,-37.986656
1992,The Currajong School,3145,145.059946,-37.875953
1993,Nunawading Christian College-Secondary,3131,145.1690183,-37.82254717
1994,Eltham College,3095,145.192232,-37.70044311
1995,Holy Eucharist School,3021,144.811408,-37.756436
1997,Learning Co-Operative School,3099,145.2133347,-37.62939233
1998,St Peter Apostle School,3029,144.69031,-37.874642
1999,Donvale Christian College,3111,145.193451,-37.774028
2000,Berengarra School,3129,145.132142,-37.80388
2001,Sholem Aleichem College,3185,145.001203,-37.882289
2002,St John XXIII Primary School,3074,145.0392037,-37.67842204
2004,School of the Good Shepherd,3043,144.889458,-37.693031
2006,Resurrection School,3173,145.16293,-37.989944
2009,Gilson College,3037,144.763149,-37.724602
2010,Cheshire School,3150,145.158092,-37.902842
2012,Holy Spirit School,3134,145.236917,-37.793231
2014,Holy Saviour Parish School,3133,145.175038,-37.862336
2015,St Clare's School,3074,144.9977174,-37.67775056
2018,Our Lady of the Pines School,3111,145.177211,-37.774442
2020,St Paul's Kealba Catholic School,3021,144.81963,-37.733736
2021,St Elizabeth's School,3175,145.198878,-37.946321
2022,St Joseph the Worker School,3073,144.99292,-37.702216
2023,Resurrection School,3021,144.775394,-37.736301
2024,Catholic Regional College,3021,144.799086,-37.738892
2027,North-Eastern Montessori School,3088,145.137091,-37.68407
2028,Waverley Christian College,3152,145.215299,-37.880135
2029,The King David School,3143,145.010495,-37.858226
2030,Westbourne Grammar School,3029,144.724898,-37.850843
2032,St Augustine's Primary School,3036,144.820517,-37.710633
2034,St Thomas the Apostle School,3088,145.1191059,-37.68218852
2035,St Luke's School,3152,145.235066,-37.853378
2036,St Peter's School,3020,144.819619,-37.800283
2037,Northside Christian College,3083,145.0546707,-37.69501422
2038,St John's College Preston,3072,144.998743,-37.747246
2039,Good Shepherd Lutheran Primary School,3136,145.268615,-37.782683
2040,Oxley Christian College,3116,145.30513,-37.763573
2045,Caroline Chisholm Catholic College,3019,144.8501,-37.785858
2048,St Anne's School,3114,145.218594,-37.773303
2050,Our Lady's School,3064,144.931372,-37.598603
2051,St Augustine's School,3199,145.145871,-38.172048
2052,St Francis of Assisi School,3082,145.0589142,-37.66499475
2053,Loyola College,3087,145.08073,-37.703396
2058,Billanook College,3138,145.3388701,-37.78785168
2059,Fitzroy Community School,3068,144.97981,-37.789173
2061,St Andrew's School,3169,145.107195,-37.93489
2067,St James the Apostle School,3029,144.687493,-37.857286
2068,St Simon's School,3178,145.245327,-37.925677
2069,Queen of Peace Primary School,3028,144.791697,-37.875148
2072,Catholic Regional College Institute of Training,3037,144.771012,-37.699136
2073,Catholic Regional College North Keilor,3036,144.805062,-37.699943
2074,Village School,3136,145.294493,-37.763749
2076,Andale School,3101,145.036044,-37.805513
2079,The Knox School,3152,145.219198,-37.865467
2080,Heathdale Christian College,3030,144.681332,-37.881318
2083,Sunshine Christian School,3020,144.835864,-37.768396
2084,Frank Dando Sports Academy,3147,145.108886,-37.8668
2086,Ghilgai School,3137,145.3189311,-37.82913713
2087,St Bernadette's Catholic Primary School,3154,145.310841,-37.853904
2088,St Catherine's School,3075,145.0032382,-37.66560256
2091,St Charles Borromeo School,3106,145.153432,-37.767398
2093,Belgrave Heights Christian School,3160,145.3462292,-37.91890282
2094,Oakleigh Grammar,3166,145.082819,-37.895907
2097,St Andrews Christian College,3152,145.244636,-37.873866
2099,Australian International Academy of Education,3058,144.966123,-37.736331
2101,St Mary MacKillop Primary School,3038,144.804346,-37.714625
2105,St Justin's School,3150,145.190508,-37.917811
2107,St Richard's Primary School,3137,145.3217417,-37.80656384
2108,Holy Trinity School,3152,145.242912,-37.877468
2112,Corpus Christi School,3030,144.6634428,-37.90994759
2113,Nazareth College,3174,145.195459,-37.940226
2115,Japanese School of Melbourne,3162,145.019402,-37.892445
2118,Sophia Mundi Steiner School,3067,145.005225,-37.803664
2119,Al-Taqwa College,3029,144.722023,-37.85265
2120,Overnewton Anglican Community College,3036,144.82318,-37.706557
2122,Holy Trinity Primary School,3095,145.135461,-37.698439
2123,St Carlo Borromeo School,3059,144.888635,-37.653642
2129,Lighthouse Christian College,3173,145.143501,-38.001204
2130,Alphington Grammar School,3078,145.036174,-37.780429
2133,Yarralinda School,3138,145.3250651,-37.76461019
2137,St Mary's Coptic Orthodox College,3048,144.931212,-37.65583
2139,Minaret College,3171,145.148625,-37.93904
2148,Bethany Catholic Primary School,3030,144.658661,-37.875586
2150,Ilim College,3047,144.930072,-37.668621
2151,Penola Catholic College,3047,144.918263,-37.687856
2152,Good Samaritan Catholic Primary School,3064,144.934319,-37.62344
2153,Erasmus Primary School,3122,145.031327,-37.827083
2157,Good News Lutheran College,3029,144.666605,-37.855248
2158,Sirius College,3047,144.9356383,-37.68471741
2159,Emmaus Catholic Primary School,3037,144.772244,-37.7003009
2161,Maharishi School of the Age of Enlightenment,3073,145.019467,-37.704377
2162,Thomas Carr College,3029,144.702055,-37.847676
2165,Darul Ulum College of Victoria,3060,144.971692,-37.705178
2168,East Preston Islamic College,3072,145.0362184,-37.73395414
2171,Aitken College,3059,144.890698,-37.627709
2172,Alia College,3123,145.045173,-37.843225
2174,Christ the Priest Catholic Primary School,3023,144.73744,-37.747724
2177,Mt Hira College,3173,145.175471,-38.013991
2178,Lumen Christi School,3030,144.753344,-37.892603
2181,Stott's Colleges,3000,144.970559,-37.811535
2182,OneSchool Global Vic,3076,144.995326,-37.644123
2183,Kamaruka,3141,144.9976787,-37.83761581
2187,Haileybury Girls College,3173,145.1447668,-37.99554667
2188,Antonine College,3044,144.9427365,-37.74119138
2189,Ozford College,3000,144.954425,-37.812887
2190,Berry Street Victoria Inc,3174,145.190186,-37.981547
2191,Yesodei HaTorah College,3184,144.983491,-37.873227
2192,Cana Catholic Primary School,3037,144.747148,-37.687916
2193,Holmes Secondary College,3000,144.972271,-37.810302
2198,Stella Maris Catholic Primary School,3030,144.728681,-37.890763
2200,Trinity Catholic School,3121,145.0082429,-37.81585217
2204,Catholic Regional College Caroline Springs,3023,144.739602,-37.728879
2206,Deutsche Schule Melbourne,3068,144.9827723,-37.77883164
2209,Kolbe Catholic College,3059,144.909467,-37.615321
2210,Hume Anglican Grammar,3064,144.931253,-37.56798
2212,Mother Teresa School,3064,144.932762,-37.575224
2214,Our Lady of the Southern Cross,3024,144.606223,-37.875846
2216,St George Preca School,3023,144.73671,-37.713493
2218,Al Siraat College,3076,145.0375337,-37.62426056
2225,St Lawrence Catholic Primary School,3026,144.760518,-37.790684
2226,Heritage College Knox,3156,145.286487,-37.887291
2227,Melbourne Grammar School,3004,144.9770931,-37.83359283
2228,Islamic College of Melbourne,3029,144.660376,-37.854236
2229,Southern Cross Grammar,3023,144.7396024,-37.71396413
2231,Cornish College,3175,145.148761,-38.049197
2232,Melbourne Montessori School,3162,145.025671,-37.888167
2233,St Francis of Assisi Catholic Primary School,3029,144.6982297,-37.84829179
2234,St Joseph's Flexible Learning Centre Melbourne,3051,144.9549374,-37.80384382
2235,Glenroy Private,3046,144.9292633,-37.69777468
2241,St Mary of the Cross MacKillop Catholic Parish Primary School,3076,145.0126014,-37.62600008
2242,St Mary of the Cross Catholic Primary School,3030,144.7659456,-37.90879787
2244,Cire Community School | Cire Training,3140,145.350541,-37.757397
2245,St John the Apostle Catholic Primary School,3029,144.6657075,-37.8334172
2246,St Clare's Catholic Primary School,3029,144.7282144,-37.84381088
2251,Heatherton Christian College,3169,145.111361,-37.95784
2252,Melbourne Indigenous Transition School,3121,144.9892635,-37.81954365
2254,Hoa Nghiem Primary School,3172,145.1487888,-37.96694215
2256,Edinburgh College,3140,145.351985,-37.78489
2257,Giant Steps Melbourne,3101,145.031476,-37.80222
2259,Lumineer Academy - Williamstown,3016,144.905196,-37.863109
2262,Preston Reservoir Adult Community Education Inc | PRACE College,3073,145.009255,-37.698704
2263,River Nile School,3051,144.955088,-37.805194
2264,Brotherhood of St Laurence|David Scott School,3065,144.976949,-37.80459
2265,Hester Hornbrook Academy,3000,144.95615,-37.816544
2266,SEDA College (Victoria),3123,145.054006,-37.830714
2268,Cheder Levi Yitzchok Inc,3182,144.99191,-37.860567
2269,Oscar Romero Catholic Primary School,3064,144.896101,-37.581972
2274,Maxwell Creative School,3154,145.321478,-37.860068
2278,Fitra Community School,3169,145.139319,-37.944839
2283,Tombolo Academy,3188,145.023502,-37.938465
2285,St Josephâ€™s Catholic Primary School,3030,144.610275,-37.903296
2288,My College,3047,144.923692,-37.675751
2290,Brosnan Learning Centre,3121,144.998477,-37.821915
